STARLINK-36478          
1 67351U 26003T   26165.36983229  .00013782  00000+0  50927-3 0  9991
2 67351  43.0024  40.7408 0001798 267.2451  92.8195 15.27588644 23618
STARLINK-36479          
1 67352U 26003U   26166.25002315 -.00014651  00000+0 -52374-3 0  9995
2 67352  43.0029  35.6869 0001483 269.4059 292.1213 15.27590865  5868
STARLINK-36474          
1 67353U 26003V   26165.94818588  .00037734  00000+0  13717-2 0  9990
2 67353  43.0034  38.2108 0001131 296.5452  63.5284 15.27629085 23694
STARLINK-36448          
1 67354U 26003W   26165.92247771  .00015034  00000+0  55448-3 0  9996
2 67354  43.0021  38.0120 0001493 269.1236  90.9445 15.27594289 23690
STARLINK-36477          
1 67355U 26003X   26165.94432300  .00023440  00000+0  85814-3 0  9993
2 67355  43.0100  38.1838 0000421 265.4917  94.5887 15.27598381 23698
STARLINK-36429          
1 67356U 26003Y   26165.35198750  .00026910  00000+0  98345-3 0  9995
2 67356  42.9973  41.4763 0001888 265.6871  94.3765 15.27592026 23602
STARLINK-36456          
1 67357U 26003Z   26165.91862226  .00016441  00000+0  60538-3 0  9995
2 67357  43.0005  37.9822 0001868 279.7325  80.3315 15.27594789 23698
STARLINK-36466          
1 67358U 26003AA  26165.37369052  .00017236  00000+0  63439-3 0  9991
2 67358  43.0024  40.7694 0001154 277.8753  82.1968 15.27580442 23618
STARLINK-36499          
1 67359U 26003AB  26166.25002315 -.00000488  00000+0 -82003-5 0  9999
2 67359  43.0020  36.5240 0001215 279.1947 295.5608 15.27602457  5862
STARLINK-36469          
1 67360U 26003AC  26165.94560744  .00019493  00000+0  71570-3 0  9990
2 67360  43.0093  38.1914 0000727 273.4514  86.6255 15.27594822 23698
STARLINK-35306          
1 67361U 26003AD  26165.91219832  .00017359  00000+0  63865-3 0  9994
2 67361  43.0017  37.9313 0002756 265.1723  94.8814 15.27589577 23692
STARLINK-36428          
1 67362U 26003AE  26165.90962701  .00015663  00000+0  57707-3 0  9998
2 67362  43.0058  37.9142 0005096 278.2390  81.7884 15.27596830 23695
STARLINK-36484          
1 67404U 26005A   26165.94413648  .00015171  00000+0  55945-3 0  9998
2 67404  43.0018  48.4613 0001895 287.3194  72.7450 15.27594308 23578
STARLINK-36452          
1 67405U 26005B   26164.95821081  .00022697  00000+0  83200-3 0  9999
2 67405  42.9984  53.9508 0001446 252.4480 107.6214 15.27570848 23429
STARLINK-36409          
1 67406U 26005C   26165.97626079  .00019729  00000+0  72426-3 0  9993
2 67406  43.0014  48.7023 0000880 122.6748 237.4188 15.27593264 23571
STARLINK-36510          
1 67407U 26005D   26165.96984402  .00025345  00000+0  92659-3 0  9991
2 67407  42.9932  48.6464 0002614 277.2846  82.7708 15.27605678 23572
STARLINK-36509          
1 67408U 26005E   26165.95441603  .00025920  00000+0  94767-3 0  9993
2 67408  43.0014  48.5327 0002266 264.4020  95.6573 15.27595097 23563
STARLINK-36507          
1 67409U 26005F   26165.98396967  .00016383  00000+0  60329-3 0  9999
2 67409  42.9960  48.7573 0002566 271.5082  88.5476 15.27591486 23579
STARLINK-36508          
1 67410U 26005G   26166.00004630  .00013187  00000+0  48797-3 0  9992
2 67410  43.0037  48.8072 0001440 282.5305 109.4330 15.27572613  5789
STARLINK-36503          
1 67411U 26005H   26165.95827101  .00019766  00000+0  72523-3 0  9995
2 67411  43.0035  48.5574 0001162 122.2740 237.8225 15.27610074 23576
STARLINK-36446          
1 67412U 26005J   26165.96469757  .00015610  00000+0  57544-3 0  9996
2 67412  43.0176  48.6129 0000941 260.5081  99.5664 15.27589392 23576
STARLINK-36442          
1 67413U 26005K   26165.94670726  .00015933  00000+0  58698-3 0  9994
2 67413  43.0042  48.4748 0004969 276.8751  83.1535 15.27587792 23570
STARLINK-36506          
1 67414U 26005L   26165.95183687  .00017015  00000+0  62589-3 0  9998
2 67414  43.0034  48.5080 0002710 269.7925  90.2616 15.27605040 23574
STARLINK-36468          
1 67415U 26005M   26165.40320404  .00023262  00000+0  85206-3 0  9991
2 67415  43.0077  52.1365 0001840 279.0785  80.9859 15.27584428 23481
STARLINK-36487          
1 67416U 26005N   26165.39806472  .00020685  00000+0  75902-3 0  9992
2 67416  43.0061  52.1004 0001186 285.5286  74.5435 15.27583971 23487
STARLINK-36374          
1 67417U 26005P   26165.38521005  .00024469  00000+0  89543-3 0  9998
2 67417  42.9993  52.0023 0002091 261.9001  98.1613 15.27591373 23484
STARLINK-36455          
1 67418U 26005Q   26165.96597852  .00027614  00000+0  10093-2 0  9994
2 67418  43.0023  48.6164 0001344 263.6623  96.4075 15.27577147 23573
STARLINK-36424          
1 67419U 26005R   26164.96976661  .00023098  00000+0  84595-3 0  9994
2 67419  43.0035  54.0417 0003789 281.7960  78.2466 15.27587609 23429
STARLINK-35564          
1 67420U 26005S   26165.97110595  .00026298  00000+0  96051-3 0  9999
2 67420  42.9940  48.6539 0002091 278.9584  81.1030 15.27621789 23577
STARLINK-36431          
1 67421U 26005T   26165.40190682  .00021558  00000+0  79033-3 0  9998
2 67421  43.0061  52.1297 0004363 263.4913  96.5442 15.27586197 23484
