OBJECT_NAME,OBJECT_ID,EPOCH,MEAN_MOTION,ECCENTRICITY,INCLINATION,RA_OF_ASC_NODE,ARG_OF_PERICENTER,MEAN_ANOMALY,EPHEMERIS_TYPE,CLASSIFICATION_TYPE,NORAD_CAT_ID,ELEMENT_SET_NO,REV_AT_EPOCH,BSTAR,MEAN_MOTION_DOT,MEAN_MOTION_DDOT
STARLINK-36478,2026-003T,2026-06-14T08:52:33.509856,15.27588644,.00017988,43.0024,40.7408,267.2451,92.8195,0,U,67351,999,2361,.50927048E-3,.13782E-3,0
STARLINK-36479,2026-003U,2026-06-15T06:00:02.000160,15.27590865,.00014837,43.0029,35.6869,269.4059,292.1213,0,U,67352,999,586,-.52374056E-3,-.14651E-3,0
STARLINK-36474,2026-003V,2026-06-14T22:45:23.260032,15.27629085,.0001131,43.0034,38.2108,296.5452,63.5284,0,U,67353,999,2369,.13717E-2,.37734E-3,0
STARLINK-36448,2026-003W,2026-06-14T22:08:22.074144,15.27594289,.0001493,43.0021,38.0120,269.1236,90.9445,0,U,67354,999,2369,.55448E-3,.15034E-3,0
STARLINK-36477,2026-003X,2026-06-14T22:39:49.507200,15.27598381,.0000421,43.0100,38.1838,265.4917,94.5887,0,U,67355,999,2369,.85814E-3,.2344E-3,0
STARLINK-36429,2026-003Y,2026-06-14T08:26:51.720000,15.27592026,.00018884,42.9973,41.4763,265.6871,94.3765,0,U,67356,999,2360,.98345109E-3,.2691E-3,0
STARLINK-36456,2026-003Z,2026-06-14T22:02:48.963264,15.27594789,.0001868,43.0005,37.9822,279.7325,80.3315,0,U,67357,999,2369,.60538E-3,.16441E-3,0
STARLINK-36466,2026-003AA,2026-06-14T08:58:06.860928,15.27580442,.00011548,43.0024,40.7694,277.8753,82.1968,0,U,67358,999,2361,.63438845E-3,.17236E-3,0
STARLINK-36499,2026-003AB,2026-06-15T06:00:02.000160,15.27602457,.00012157,43.0020,36.5240,279.1947,295.5608,0,U,67359,999,586,-.8200345E-5,-.488E-5,0
STARLINK-36469,2026-003AC,2026-06-14T22:41:40.482816,15.27594822,.0000727,43.0093,38.1914,273.4514,86.6255,0,U,67360,999,2369,.7157E-3,.19493E-3,0
STARLINK-35306,2026-003AD,2026-06-14T21:53:33.934848,15.27589577,.0002756,43.0017,37.9313,265.1723,94.8814,0,U,67361,999,2369,.63865E-3,.17359E-3,0
STARLINK-36428,2026-003AE,2026-06-14T21:49:51.773664,15.27596830,.0005096,43.0058,37.9142,278.2390,81.7884,0,U,67362,999,2369,.57707E-3,.15663E-3,0
STARLINK-36484,2026-005A,2026-06-14T22:39:33.391872,15.27594308,.0001895,43.0018,48.4613,287.3194,72.7450,0,U,67404,999,2357,.55945E-3,.15171E-3,0
STARLINK-36452,2026-005B,2026-06-13T22:59:49.413984,15.27570848,.0001446,42.9984,53.9508,252.4480,107.6214,0,U,67405,999,2342,.832E-3,.22697E-3,0
STARLINK-36409,2026-005C,2026-06-14T23:25:48.932256,15.27593264,.00008804,43.0014,48.7023,122.6748,237.4188,0,U,67406,999,2357,.72425569E-3,.19729E-3,0
STARLINK-36510,2026-005D,2026-06-14T23:16:34.523328,15.27605678,.0002614,42.9932,48.6464,277.2846,82.7708,0,U,67407,999,2357,.92659E-3,.25345E-3,0
STARLINK-36509,2026-005E,2026-06-14T22:54:21.544992,15.27595097,.0002266,43.0014,48.5327,264.4020,95.6573,0,U,67408,999,2356,.94767E-3,.2592E-3,0
STARLINK-36507,2026-005F,2026-06-14T23:36:54.979488,15.27591486,.00025667,42.9960,48.7573,271.5082,88.5476,0,U,67409,999,2357,.6032943E-3,.16383E-3,0
STARLINK-36508,2026-005G,2026-06-15T00:00:04.000320,15.27572613,.00014408,43.0037,48.8072,282.5305,109.4330,0,U,67410,999,578,.48796791E-3,.13187E-3,0
STARLINK-36503,2026-005H,2026-06-14T22:59:54.615264,15.27610074,.0001162,43.0035,48.5574,122.2740,237.8225,0,U,67411,999,2357,.72523E-3,.19766E-3,0
STARLINK-36446,2026-005J,2026-06-14T23:09:09.870048,15.27589392,.0000941,43.0176,48.6129,260.5081,99.5664,0,U,67412,999,2357,.57544E-3,.1561E-3,0
STARLINK-36442,2026-005K,2026-06-14T22:43:15.507264,15.27587792,.0004969,43.0042,48.4748,276.8751,83.1535,0,U,67413,999,2357,.58698E-3,.15933E-3,0
STARLINK-36506,2026-005L,2026-06-14T22:50:38.705568,15.27605040,.000271,43.0034,48.5080,269.7925,90.2616,0,U,67414,999,2357,.62589E-3,.17015E-3,0
STARLINK-36468,2026-005M,2026-06-14T09:40:36.829056,15.27584428,.000184,43.0077,52.1365,279.0785,80.9859,0,U,67415,999,2348,.85206465E-3,.23262E-3,0
STARLINK-36487,2026-005N,2026-06-14T09:33:12.791808,15.27583971,.00011869,43.0061,52.1004,285.5286,74.5435,0,U,67416,999,2348,.75902029E-3,.20685E-3,0
STARLINK-36374,2026-005P,2026-06-14T09:14:42.148320,15.27591373,.00020912,42.9993,52.0023,261.9001,98.1613,0,U,67417,999,2348,.89543333E-3,.24469E-3,0
STARLINK-36455,2026-005Q,2026-06-14T23:11:00.544128,15.27577147,.0001344,43.0023,48.6164,263.6623,96.4075,0,U,67418,999,2357,.10093E-2,.27614E-3,0
STARLINK-36424,2026-005R,2026-06-13T23:16:27.835104,15.27587609,.0003789,43.0035,54.0417,281.7960,78.2466,0,U,67419,999,2342,.84595E-3,.23098E-3,0
STARLINK-35564,2026-005S,2026-06-14T23:18:23.554080,15.27621789,.0002091,42.9940,48.6539,278.9584,81.1030,0,U,67420,999,2357,.96051E-3,.26298E-3,0
STARLINK-36431,2026-005T,2026-06-14T09:38:44.749248,15.27586197,.00043638,43.0061,52.1297,263.4913,96.5442,0,U,67421,999,2348,.79032945E-3,.21558E-3,0
